OBJECT_NAME,OBJECT_ID,EPOCH,MEAN_MOTION,ECCENTRICITY,INCLINATION,RA_OF_ASC_NODE,ARG_OF_PERICENTER,MEAN_ANOMALY,EPHEMERIS_TYPE,CLASSIFICATION_TYPE,NORAD_CAT_ID,ELEMENT_SET_NO,REV_AT_EPOCH,BSTAR,MEAN_MOTION_DOT,MEAN_MOTION_DDOT
GSAT0209 (GALILEO 12),2015-079A,2026-07-19T21:18:19.364832,1.70473671,.00046186,55.8457,100.3644,358.4074,1.6290,0,U,41174,999,6533,0,-.39E-6,0
GSAT0208 (GALILEO 11),2015-079B,2026-07-21T20:49:39.727488,1.70473606,.00042062,55.8455,100.3069,2.1198,357.9162,0,U,41175,999,6578,0,-.47E-6,0
ORBCOMM FM110,2015-081D,2026-07-23T07:58:30.886752,14.58928581,.00038353,47.0004,190.5313,254.1022,105.9441,0,U,41182,999,56290,.18419352E-3,.7E-5,0
ORBCOMM FM118,2015-081E,2026-07-23T08:48:12.767616,14.58912847,.00032847,47.0026,190.7088,220.0538,140.0106,0,U,41183,999,56301,.16588829E-3,.614E-5,0
ORBCOMM FM112,2015-081F,2026-07-23T10:32:19.102272,14.58948016,.00031822,46.9990,98.8143,5.2324,354.8595,0,U,41184,999,56424,.15772208E-3,.575E-5,0
ORBCOMM FM113,2015-081G,2026-07-23T01:47:25.932480,14.58888123,.00017654,47.0007,100.9337,353.8183,6.2680,0,U,41185,999,56417,.10187487E-3,.311E-5,0
ORBCOMM FM108,2015-081J,2026-07-23T12:22:48.259776,14.58918953,.00020968,47.0061,10.4291,355.3827,4.7039,0,U,41187,999,56538,.14029696E-3,.493E-5,0
ORBCOMM FM117,2015-081K,2026-07-23T11:33:34.037280,14.58905810,.00024892,47.0024,9.2159,4.0715,356.0191,0,U,41188,999,56542,.1389903E-3,.486E-5,0
ORBCOMM FM116,2015-081L,2026-07-23T09:26:16.200384,14.58914992,.00017643,47.0023,99.4237,251.6985,108.3709,0,U,41189,999,56422,.13967535E-3,.49E-5,0
EXPRESS-AMU1,2015-082A,2026-07-23T13:09:23.170176,1.00270983,.0002527,0.0166,64.4296,58.2287,52.0389,0,U,41191,999,3863,0,.16E-5,0
GAOFEN-4,2015-083A,2026-07-21T14:23:34.672704,1.00270335,.00041624,0.4439,83.8614,121.1097,55.9718,0,U,41194,999,3887,0,-.333E-5,0
BELINTERSAT-1,2016-001A,2026-07-23T13:13:45.250752,1.00269927,.00017911,0.0327,235.2400,196.2701,119.7161,0,U,41238,999,3860,0,.112E-5,0
JASON-3,2016-002A,2026-07-23T14:02:47.488704,12.87629004,.00081191,66.0415,49.3119,270.0660,89.9428,0,U,41240,999,49193,.7121336E-4,-.44E-6,0
IRNSS-1E,2016-003A,2026-07-21T00:43:29.481312,1.00275296,.0019282,33.3051,59.2585,176.3074,185.9195,0,U,41241,999,3842,0,-.317E-5,0
EUTELSAT 9B,2016-005A,2026-07-23T13:01:38.911872,1.00269810,.00012413,0.0189,46.1369,64.6402,34.9051,0,U,41310,999,3848,0,.66E-6,0
NAVSTAR 76 (USA 266),2016-007A,2026-07-20T18:32:46.533984,2.00575241,.00966493,55.5446,88.1275,247.5642,111.4594,0,U,41328,999,7651,0,-.59E-6,0
COSMOS 2514 [GLONASS-M],2016-008A,2026-07-23T10:02:13.434720,2.13102761,.00125572,64.9975,311.7630,202.1470,157.8201,0,U,41330,999,8139,0,-.88E-6,0
SENTINEL-3A,2016-011A,2026-07-23T14:44:04.784928,14.26736152,.00012903,98.6231,271.4708,86.8631,273.2698,0,U,41335,999,54325,.74789523E-4,.137E-5,0
SES-9,2016-013A,2026-07-23T13:30:01.004832,1.00271796,.000243,0.0185,326.6761,139.0579,146.3674,0,U,41380,999,3780,0,-.34E-5,0
EUTELSAT 65 WEST A,2016-014A,2026-07-23T12:40:25.946112,1.00271782,.00024309,0.0816,301.5892,174.7502,309.8430,0,U,41382,999,3789,0,-.271E-5,0
IRNSS-1F,2016-015A,2026-07-23T06:17:42.357120,1.00270531,.00178114,5.4366,95.9506,179.6499,152.2326,0,U,41384,999,3802,0,.157E-5,0
COSMOS 2515,2016-020A,2026-07-23T14:44:22.579008,15.08043708,.00234301,97.9762,221.4632,175.2266,184.9189,0,U,41394,999,56590,.58786244E-4,.841E-5,0
BEIDOU-2 IGSO-6,2016-021A,2026-06-26T02:38:38.671584,1.00258926,.0057558,60.2385,37.9495,231.0163,137.2672,0,U,41434,999,3757,0,-.145E-5,0
IRNSS-1G,2016-027A,2026-07-23T13:00:26.747136,1.00265450,.00057792,5.2833,96.6329,13.8468,155.4780,0,U,41469,999,3754,0,-.335E-5,0
JCSAT-2B,2016-028A,2026-07-23T13:42:59.760000,1.00272507,.00011513,0.0181,61.8798,42.7133,196.4604,0,U,41471,999,3749,0,-.16E-5,0
YAOGAN-30 01,2016-029A,2026-07-23T14:54:26.209152,14.76304815,.00169679,97.8994,253.7253,113.6213,246.6780,0,U,41473,999,54904,.81976746E-4,.519E-5,0
GSAT0211 (GALILEO 14),2016-030A,2026-07-20T05:33:31.703616,1.70473740,.00034438,55.0891,220.7852,318.9851,41.0285,0,U,41549,999,6323,0,.57E-6,0
GSAT0210 (GALILEO 13),2016-030B,2026-07-23T10:07:22.478016,1.70473980,.00047203,55.0870,220.6957,247.6947,112.3044,0,U,41550,999,6328,0,.76E-6,0
THAICOM 8,2016-031A,2026-07-23T13:21:31.819392,1.00272122,.00031108,0.0658,41.6564,37.7337,140.7675,0,U,41552,999,3708,0,-.116E-5,0
ZIYUAN 3-02 (ZY 3-02),2016-033A,2026-07-23T15:05:05.087040,15.21165215,.00136097,97.3822,279.7009,158.8968,201.2832,0,U,41556,999,56352,.26837556E-3,.5926E-4,0
COSMOS 2517 (GEO-IK 2),2016-034A,2026-07-23T14:25:24.022272,13.85906377,.00010556,99.1891,212.6970,93.8423,266.2854,0,U,41579,999,51267,.26876065E-4,-.13E-6,0
